<?xml version="1.0" encoding="UTF-8"?>
<kml xmlns="http://www.opengis.net/kml/2.2">
  <Document>
    <name>Trajectoire Robot GPS</name>
    <description>Généré automatiquement depuis ../config/waypoints_GPS.yaml</description>
    
    <!-- Définition du style visuel de la ligne (Rouge, épaisseur 3) -->
    <Style id="redLine">
      <LineStyle>
        <color>ff0000ff</color> <!-- Format AABBGGRR : opacité=ff, bleu=00, vert=00, rouge=ff -->
        <width>3</width>
      </LineStyle>
    </Style>
    
    <Placemark>
      <name>Path MPPI</name>
      <styleUrl>#redLine</styleUrl>
      <LineString>
        <tessellate>1</tessellate> <!-- Plaque la ligne sur le relief du terrain -->
        <coordinates>
                120.4968604,36.3058634,0.0
                120.4968603,36.3058633,0.0
                120.4968604,36.3058633,0.0
                120.4968603,36.3058633,0.0
                120.4968603,36.3058633,0.0
                120.4968603,36.3058633,0.0
                120.4968604,36.3058633,0.0
                120.4968603,36.3058633,0.0
                120.4968604,36.3058633,0.0
                120.4968603,36.3058634,0.0
                120.4968604,36.3058633,0.0
                120.4968604,36.3058633,0.0
                120.4968603,36.3058633,0.0
                120.4968603,36.3058633,0.0
                120.4968603,36.3058633,0.0
                120.4968603,36.3058633,0.0
                120.4968603,36.3058633,0.0
                120.4968604,36.3058633,0.0
                120.4968603,36.3058634,0.0
                120.4968603,36.3058633,0.0
                120.4968603,36.3058634,0.0
                120.4968603,36.3058633,0.0
                120.4968603,36.3058633,0.0
                120.4968604,36.3058634,0.0
                120.4968603,36.3058633,0.0
                120.4968604,36.3058633,0.0
                120.4968604,36.3058633,0.0
                120.4968604,36.3058633,0.0
                120.4968603,36.3058633,0.0
                120.4968603,36.3058633,0.0
                120.4968603,36.3058633,0.0
                120.4968603,36.3058633,0.0
                120.4968604,36.3058633,0.0
                120.4968604,36.3058633,0.0
                120.4968605,36.3058632,0.0
                120.4968605,36.3058631,0.0
                120.4968606,36.305863,0.0
                120.4968606,36.305863,0.0
                120.4968606,36.3058629,0.0
                120.4968607,36.3058627,0.0
                120.4968608,36.3058625,0.0
                120.4968611,36.3058622,0.0
                120.4968613,36.3058618,0.0
                120.4968614,36.3058615,0.0
                120.4968614,36.3058612,0.0
                120.4968616,36.305861,0.0
                120.4968618,36.3058608,0.0
                120.4968619,36.3058605,0.0
                120.496862,36.3058602,0.0
                120.4968621,36.3058599,0.0
                120.4968624,36.3058597,0.0
                120.4968625,36.3058594,0.0
                120.4968627,36.3058591,0.0
                120.4968628,36.3058588,0.0
                120.4968629,36.3058585,0.0
                120.4968631,36.3058583,0.0
                120.4968632,36.305858,0.0
                120.4968633,36.3058577,0.0
                120.4968635,36.3058574,0.0
                120.4968637,36.3058571,0.0
                120.4968638,36.3058569,0.0
                120.4968639,36.3058566,0.0
                120.4968641,36.3058563,0.0
                120.4968642,36.3058561,0.0
                120.4968644,36.3058558,0.0
                120.4968645,36.3058555,0.0
                120.4968646,36.3058552,0.0
                120.4968648,36.305855,0.0
                120.496865,36.3058547,0.0
                120.496865,36.3058544,0.0
                120.4968652,36.3058541,0.0
                120.4968653,36.3058538,0.0
                120.4968655,36.3058536,0.0
                120.4968656,36.3058533,0.0
                120.4968657,36.305853,0.0
                120.4968659,36.3058527,0.0
                120.496866,36.3058524,0.0
                120.4968661,36.3058522,0.0
                120.4968663,36.3058519,0.0
                120.4968664,36.3058516,0.0
                120.4968665,36.3058514,0.0
                120.4968666,36.3058511,0.0
                120.4968668,36.3058508,0.0
                120.496867,36.3058503,0.0
                120.4968672,36.3058498,0.0
                120.4968674,36.3058493,0.0
                120.4968676,36.3058489,0.0
                120.4968678,36.3058484,0.0
                120.496868,36.305848,0.0
                120.4968682,36.3058476,0.0
                120.4968684,36.3058472,0.0
                120.4968685,36.3058468,0.0
                120.4968687,36.3058464,0.0
                120.496869,36.3058459,0.0
                120.4968691,36.3058455,0.0
                120.4968693,36.3058451,0.0
                120.4968695,36.3058447,0.0
                120.4968697,36.3058443,0.0
                120.4968699,36.3058438,0.0
                120.4968701,36.3058434,0.0
                120.4968703,36.305843,0.0
                120.4968704,36.3058425,0.0
                120.4968706,36.3058421,0.0
                120.4968707,36.3058417,0.0
                120.4968709,36.3058413,0.0
                120.4968711,36.3058408,0.0
                120.4968712,36.3058404,0.0
                120.4968714,36.30584,0.0
                120.4968715,36.3058395,0.0
                120.4968717,36.3058391,0.0
                120.4968718,36.3058386,0.0
                120.4968719,36.3058382,0.0
                120.4968722,36.3058378,0.0
                120.4968723,36.3058373,0.0
                120.4968724,36.3058369,0.0
                120.4968726,36.3058365,0.0
                120.4968728,36.305836,0.0
                120.496873,36.3058356,0.0
                120.4968731,36.3058351,0.0
                120.4968733,36.3058347,0.0
                120.4968735,36.3058343,0.0
                120.4968737,36.3058339,0.0
                120.4968738,36.3058334,0.0
                120.496874,36.305833,0.0
                120.4968742,36.3058326,0.0
                120.4968744,36.3058321,0.0
                120.4968746,36.3058317,0.0
                120.4968748,36.3058313,0.0
                120.496875,36.3058308,0.0
                120.4968752,36.3058304,0.0
                120.4968754,36.30583,0.0
                120.4968756,36.3058295,0.0
                120.4968758,36.3058291,0.0
                120.496876,36.3058287,0.0
                120.4968762,36.3058283,0.0
                120.4968764,36.3058278,0.0
                120.4968766,36.3058274,0.0
                120.4968768,36.3058269,0.0
                120.496877,36.3058265,0.0
                120.4968772,36.3058261,0.0
                120.4968774,36.3058256,0.0
                120.4968776,36.3058251,0.0
                120.4968778,36.3058247,0.0
                120.496878,36.3058243,0.0
                120.4968782,36.3058239,0.0
                120.4968784,36.3058234,0.0
                120.4968785,36.305823,0.0
                120.4968788,36.3058225,0.0
                120.496879,36.3058221,0.0
                120.4968791,36.3058216,0.0
                120.4968793,36.3058212,0.0
                120.4968795,36.3058208,0.0
                120.4968797,36.3058203,0.0
                120.4968798,36.3058198,0.0
                120.49688,36.3058194,0.0
                120.4968802,36.3058189,0.0
                120.4968803,36.3058184,0.0
                120.4968806,36.305818,0.0
                120.4968807,36.3058176,0.0
                120.4968809,36.3058172,0.0
                120.4968812,36.3058167,0.0
                120.4968814,36.3058163,0.0
                120.4968816,36.3058159,0.0
                120.4968819,36.3058154,0.0
                120.4968821,36.3058149,0.0
                120.4968823,36.3058145,0.0
                120.4968826,36.305814,0.0
                120.4968828,36.3058136,0.0
                120.4968831,36.3058132,0.0
                120.4968834,36.3058127,0.0
                120.4968836,36.3058123,0.0
                120.4968839,36.3058119,0.0
                120.4968842,36.3058115,0.0
                120.4968846,36.305811,0.0
                120.4968849,36.3058106,0.0
                120.4968852,36.3058103,0.0
                120.4968855,36.3058099,0.0
                120.4968858,36.3058094,0.0
                120.4968862,36.305809,0.0
                120.4968865,36.3058086,0.0
                120.4968867,36.3058082,0.0
                120.4968871,36.3058078,0.0
                120.4968874,36.3058074,0.0
                120.4968877,36.3058069,0.0
                120.496888,36.3058065,0.0
                120.4968884,36.3058062,0.0
                120.4968887,36.3058058,0.0
                120.4968891,36.3058053,0.0
                120.4968894,36.305805,0.0
                120.4968898,36.3058046,0.0
                120.4968902,36.3058042,0.0
                120.4968905,36.3058038,0.0
                120.4968909,36.3058034,0.0
                120.4968913,36.3058029,0.0
                120.4968916,36.3058025,0.0
                120.496892,36.3058021,0.0
                120.4968924,36.3058017,0.0
                120.4968928,36.3058014,0.0
                120.4968932,36.305801,0.0
                120.4968936,36.3058006,0.0
                120.4968939,36.3058003,0.0
                120.4968943,36.3057999,0.0
                120.4968947,36.3057995,0.0
                120.4968951,36.3057991,0.0
                120.4968955,36.3057987,0.0
                120.4968958,36.3057983,0.0
                120.4968962,36.3057979,0.0
                120.4968965,36.3057975,0.0
                120.4968969,36.305797,0.0
                120.4968972,36.3057966,0.0
                120.4968975,36.3057961,0.0
                120.4968979,36.3057957,0.0
                120.4968981,36.3057953,0.0
                120.4968985,36.3057948,0.0
                120.4968988,36.3057945,0.0
                120.4968992,36.305794,0.0
                120.4968995,36.3057937,0.0
                120.4968998,36.3057933,0.0
                120.4969001,36.3057928,0.0
                120.4969004,36.3057924,0.0
                120.4969007,36.305792,0.0
                120.4969009,36.3057915,0.0
                120.4969012,36.3057911,0.0
                120.4969015,36.3057906,0.0
                120.4969018,36.3057902,0.0
                120.4969021,36.3057897,0.0
                120.4969024,36.3057893,0.0
                120.4969027,36.3057889,0.0
                120.4969029,36.3057884,0.0
                120.4969032,36.305788,0.0
                120.4969035,36.3057875,0.0
                120.4969038,36.3057871,0.0
                120.4969041,36.3057867,0.0
                120.4969044,36.3057862,0.0
                120.4969047,36.3057857,0.0
                120.4969049,36.3057853,0.0
                120.4969053,36.3057848,0.0
                120.4969056,36.3057844,0.0
                120.4969059,36.3057839,0.0
                120.4969061,36.3057834,0.0
                120.4969064,36.3057829,0.0
                120.4969066,36.3057824,0.0
                120.4969069,36.3057819,0.0
                120.4969071,36.3057815,0.0
                120.4969073,36.305781,0.0
                120.4969075,36.3057805,0.0
                120.4969077,36.30578,0.0
                120.4969079,36.3057796,0.0
                120.4969081,36.3057791,0.0
                120.4969083,36.3057786,0.0
                120.4969083,36.3057781,0.0
                120.4969085,36.3057776,0.0
                120.4969087,36.3057772,0.0
                120.4969088,36.3057767,0.0
                120.496909,36.3057762,0.0
                120.496909,36.3057757,0.0
                120.4969091,36.3057751,0.0
                120.4969093,36.3057747,0.0
                120.4969094,36.3057741,0.0
                120.4969095,36.3057736,0.0
                120.4969095,36.3057731,0.0
                120.4969097,36.3057726,0.0
                120.4969098,36.3057721,0.0
                120.4969098,36.3057715,0.0
                120.4969099,36.305771,0.0
                120.49691,36.3057705,0.0
                120.4969101,36.30577,0.0
                120.4969101,36.3057694,0.0
                120.4969101,36.3057689,0.0
                120.4969102,36.3057683,0.0
                120.4969103,36.3057678,0.0
                120.4969103,36.3057672,0.0
                120.4969103,36.3057666,0.0
                120.4969104,36.3057661,0.0
                120.4969105,36.3057656,0.0
                120.4969105,36.3057651,0.0
                120.4969106,36.3057646,0.0
                120.4969107,36.3057641,0.0
                120.4969108,36.3057635,0.0
                120.4969108,36.305763,0.0
                120.4969109,36.3057625,0.0
                120.496911,36.305762,0.0
                120.496911,36.3057615,0.0
                120.4969111,36.3057609,0.0
                120.4969112,36.3057604,0.0
                120.4969112,36.3057599,0.0
                120.4969112,36.3057593,0.0
                120.4969112,36.3057587,0.0
                120.4969112,36.3057582,0.0
                120.4969112,36.3057576,0.0
                120.4969112,36.3057571,0.0
                120.4969111,36.3057565,0.0
                120.496911,36.305756,0.0
                120.496911,36.3057555,0.0
                120.496911,36.305755,0.0
                120.4969109,36.3057544,0.0
                120.4969108,36.3057539,0.0
                120.4969107,36.3057533,0.0
                120.4969107,36.3057528,0.0
                120.4969105,36.3057523,0.0
                120.4969105,36.3057518,0.0
                120.4969103,36.3057513,0.0
                120.4969102,36.3057508,0.0
                120.4969101,36.3057502,0.0
                120.49691,36.3057497,0.0
                120.4969098,36.3057492,0.0
                120.4969096,36.3057486,0.0
                120.4969095,36.3057481,0.0
                120.4969093,36.3057476,0.0
                120.4969091,36.305747,0.0
                120.4969088,36.3057465,0.0
                120.4969086,36.305746,0.0
                120.4969083,36.3057455,0.0
                120.4969082,36.3057451,0.0
                120.4969079,36.3057446,0.0
                120.4969076,36.3057441,0.0
                120.4969073,36.3057436,0.0
                120.4969071,36.3057432,0.0
                120.4969068,36.3057427,0.0
                120.4969065,36.3057422,0.0
                120.4969062,36.3057418,0.0
                120.4969059,36.3057413,0.0
                120.4969056,36.3057408,0.0
                120.4969053,36.3057403,0.0
                120.4969049,36.3057399,0.0
                120.4969047,36.3057395,0.0
                120.4969044,36.305739,0.0
                120.4969041,36.3057385,0.0
                120.4969038,36.305738,0.0
                120.4969034,36.3057376,0.0
                120.4969031,36.3057371,0.0
                120.4969028,36.3057366,0.0
                120.4969024,36.3057361,0.0
                120.4969021,36.3057356,0.0
                120.4969018,36.3057352,0.0
                120.4969015,36.3057347,0.0
                120.4969011,36.3057343,0.0
                120.4969007,36.3057338,0.0
                120.4969004,36.3057333,0.0
                120.4969001,36.3057328,0.0
                120.4968998,36.3057324,0.0
                120.4968994,36.3057319,0.0
                120.4968989,36.3057314,0.0
                120.4968985,36.305731,0.0
                120.496898,36.3057306,0.0
                120.4968976,36.3057302,0.0
                120.496897,36.3057298,0.0
                120.4968966,36.3057294,0.0
                120.4968961,36.305729,0.0
                120.4968956,36.3057286,0.0
                120.496895,36.3057282,0.0
                120.4968945,36.3057279,0.0
                120.4968939,36.3057275,0.0
                120.4968934,36.3057272,0.0
                120.4968929,36.3057269,0.0
                120.4968924,36.3057265,0.0
                120.4968917,36.3057261,0.0
                120.4968912,36.3057259,0.0
                120.4968906,36.3057255,0.0
                120.4968899,36.3057252,0.0
                120.4968892,36.3057249,0.0
                120.4968888,36.3057248,0.0
                120.4968882,36.3057244,0.0
                120.4968876,36.3057241,0.0
                120.4968868,36.3057239,0.0
                120.4968863,36.3057237,0.0
                120.4968856,36.3057235,0.0
                120.496885,36.3057233,0.0
                120.4968843,36.305723,0.0
                120.4968836,36.3057229,0.0
                120.4968829,36.3057227,0.0
                120.4968822,36.3057225,0.0
                120.4968816,36.3057223,0.0
                120.4968808,36.3057221,0.0
                120.4968801,36.305722,0.0
                120.4968793,36.3057219,0.0
                120.4968785,36.3057217,0.0
                120.4968777,36.3057215,0.0
                120.496877,36.3057214,0.0
                120.4968762,36.3057214,0.0
                120.4968754,36.3057213,0.0
                120.4968746,36.3057212,0.0
                120.4968738,36.3057211,0.0
                120.496873,36.3057211,0.0
                120.4968723,36.3057211,0.0
                120.4968716,36.3057211,0.0
                120.4968708,36.3057211,0.0
                120.4968701,36.3057212,0.0
                120.4968693,36.3057212,0.0
                120.4968686,36.3057212,0.0
                120.4968679,36.3057213,0.0
                120.496867,36.3057214,0.0
                120.4968663,36.3057215,0.0
                120.4968655,36.3057215,0.0
                120.4968648,36.3057217,0.0
                120.4968641,36.3057219,0.0
                120.4968634,36.3057221,0.0
                120.4968627,36.3057222,0.0
                120.496862,36.3057223,0.0
                120.4968613,36.3057226,0.0
                120.4968607,36.3057228,0.0
                120.4968599,36.3057229,0.0
                120.4968594,36.3057232,0.0
                120.4968586,36.3057234,0.0
                120.4968579,36.3057237,0.0
                120.4968573,36.305724,0.0
                120.4968566,36.3057242,0.0
                120.496856,36.3057245,0.0
                120.4968554,36.3057248,0.0
                120.4968547,36.3057251,0.0
                120.4968541,36.3057254,0.0
                120.4968535,36.3057258,0.0
                120.4968529,36.3057262,0.0
                120.4968525,36.3057266,0.0
                120.4968519,36.3057269,0.0
                120.4968514,36.3057273,0.0
                120.4968508,36.3057277,0.0
                120.4968504,36.3057281,0.0
                120.4968499,36.3057285,0.0
                120.4968494,36.305729,0.0
                120.496849,36.3057294,0.0
                120.4968485,36.3057298,0.0
                120.496848,36.3057303,0.0
                120.4968476,36.3057307,0.0
                120.4968471,36.3057312,0.0
                120.4968468,36.3057317,0.0
                120.4968463,36.3057321,0.0
                120.4968459,36.3057326,0.0
                120.4968455,36.3057331,0.0
                120.4968451,36.3057336,0.0
                120.4968447,36.305734,0.0
                120.4968444,36.3057345,0.0
                120.496844,36.305735,0.0
                120.4968437,36.3057355,0.0
                120.4968433,36.305736,0.0
                120.496843,36.3057365,0.0
                120.4968426,36.3057369,0.0
                120.4968423,36.3057374,0.0
                120.4968419,36.3057379,0.0
                120.4968416,36.3057384,0.0
                120.4968413,36.3057389,0.0
                120.496841,36.3057394,0.0
                120.4968407,36.3057399,0.0
                120.4968404,36.3057404,0.0
                120.4968401,36.3057409,0.0
                120.4968399,36.3057414,0.0
                120.4968396,36.3057418,0.0
                120.4968394,36.3057424,0.0
                120.4968391,36.3057429,0.0
                120.4968388,36.3057434,0.0
                120.4968385,36.3057439,0.0
                120.4968382,36.3057444,0.0
                120.4968379,36.3057449,0.0
                120.4968376,36.3057454,0.0
                120.4968374,36.3057459,0.0
                120.4968371,36.3057464,0.0
                120.4968369,36.3057469,0.0
                120.4968366,36.3057474,0.0
                120.4968363,36.3057479,0.0
                120.4968361,36.3057484,0.0
                120.4968359,36.3057489,0.0
                120.4968356,36.3057494,0.0
                120.4968354,36.3057499,0.0
                120.4968351,36.3057504,0.0
                120.4968348,36.305751,0.0
                120.4968346,36.3057515,0.0
                120.4968344,36.305752,0.0
                120.4968341,36.3057525,0.0
                120.496834,36.3057531,0.0
                120.4968338,36.3057536,0.0
                120.4968336,36.3057541,0.0
                120.4968334,36.3057546,0.0
                120.4968331,36.3057551,0.0
                120.4968329,36.3057556,0.0
                120.4968327,36.3057561,0.0
                120.4968326,36.3057566,0.0
                120.4968324,36.3057571,0.0
                120.4968323,36.3057576,0.0
                120.4968321,36.3057581,0.0
                120.4968319,36.3057586,0.0
                120.4968318,36.3057591,0.0
                120.4968317,36.3057596,0.0
                120.4968316,36.3057601,0.0
                120.4968313,36.3057606,0.0
                120.4968311,36.305761,0.0
                120.4968308,36.3057615,0.0
                120.4968307,36.305762,0.0
                120.4968305,36.3057625,0.0
                120.4968302,36.305763,0.0
                120.49683,36.3057634,0.0
                120.4968298,36.3057639,0.0
                120.4968295,36.3057643,0.0
                120.4968293,36.3057648,0.0
                120.496829,36.3057653,0.0
                120.4968287,36.3057657,0.0
                120.4968284,36.3057662,0.0
                120.4968282,36.3057666,0.0
                120.496828,36.3057671,0.0
                120.4968277,36.3057675,0.0
                120.4968274,36.305768,0.0
                120.4968271,36.3057685,0.0
                120.4968268,36.3057689,0.0
                120.4968264,36.3057694,0.0
                120.4968261,36.3057699,0.0
                120.4968258,36.3057703,0.0
                120.4968255,36.3057708,0.0
                120.4968252,36.3057712,0.0
                120.4968249,36.3057716,0.0
                120.4968246,36.3057721,0.0
                120.4968243,36.3057725,0.0
                120.496824,36.305773,0.0
                120.4968237,36.3057734,0.0
                120.4968234,36.3057739,0.0
                120.4968231,36.3057743,0.0
                120.4968227,36.3057747,0.0
                120.4968224,36.3057751,0.0
                120.4968221,36.3057755,0.0
                120.4968217,36.305776,0.0
                120.4968214,36.3057764,0.0
                120.4968211,36.3057769,0.0
                120.4968207,36.3057773,0.0
                120.4968203,36.3057777,0.0
                120.49682,36.3057782,0.0
                120.4968197,36.3057786,0.0
                120.4968192,36.305779,0.0
                120.4968188,36.3057795,0.0
                120.4968184,36.3057799,0.0
                120.496818,36.3057804,0.0
                120.4968176,36.3057809,0.0
                120.4968172,36.3057813,0.0
                120.4968168,36.3057818,0.0
                120.4968165,36.3057823,0.0
                120.4968161,36.3057827,0.0
                120.4968158,36.3057832,0.0
                120.4968155,36.3057837,0.0
                120.4968152,36.3057842,0.0
                120.4968148,36.3057847,0.0
                120.4968145,36.3057852,0.0
                120.4968142,36.3057857,0.0
                120.4968139,36.3057863,0.0
                120.4968136,36.3057867,0.0
                120.4968133,36.3057873,0.0
                120.496813,36.3057878,0.0
                120.4968128,36.3057883,0.0
                120.4968126,36.3057888,0.0
                120.4968123,36.3057893,0.0
                120.4968121,36.3057899,0.0
                120.4968119,36.3057904,0.0
                120.4968116,36.305791,0.0
                120.4968114,36.3057915,0.0
                120.4968112,36.305792,0.0
                120.496811,36.3057926,0.0
                120.4968109,36.3057932,0.0
                120.4968107,36.3057938,0.0
                120.4968105,36.3057943,0.0
                120.4968103,36.3057948,0.0
                120.4968102,36.3057954,0.0
                120.4968101,36.305796,0.0
                120.4968101,36.3057965,0.0
                120.4968099,36.3057971,0.0
                120.4968099,36.3057977,0.0
                120.4968098,36.3057982,0.0
                120.4968097,36.3057987,0.0
                120.4968097,36.3057993,0.0
                120.4968097,36.3057998,0.0
                120.4968099,36.3058003,0.0
                120.4968099,36.3058008,0.0
                120.4968101,36.3058014,0.0
                120.4968101,36.3058019,0.0
                120.4968103,36.3058024,0.0
                120.4968104,36.3058029,0.0
                120.4968105,36.3058033,0.0
                120.4968106,36.3058038,0.0
                120.4968106,36.3058043,0.0
                120.4968106,36.3058047,0.0
                120.4968108,36.3058052,0.0
                120.4968109,36.3058057,0.0
                120.496811,36.3058062,0.0
                120.496811,36.3058065,0.0
                120.4968111,36.305807,0.0
                120.4968111,36.3058074,0.0
                120.4968111,36.3058079,0.0
                120.4968112,36.3058084,0.0
                120.4968112,36.3058088,0.0
                120.4968113,36.3058092,0.0
                120.4968112,36.3058096,0.0
                120.4968111,36.3058101,0.0
                120.4968111,36.3058105,0.0
                120.496811,36.3058109,0.0
                120.496811,36.3058113,0.0
                120.4968109,36.3058118,0.0
                120.4968109,36.3058123,0.0
                120.4968108,36.3058128,0.0
                120.4968107,36.3058132,0.0
                120.4968106,36.3058137,0.0
                120.4968105,36.3058141,0.0
                120.4968104,36.3058146,0.0
                120.4968102,36.305815,0.0
                120.4968101,36.3058154,0.0
                120.4968099,36.3058159,0.0
                120.4968097,36.3058163,0.0
                120.4968095,36.3058167,0.0
                120.4968092,36.3058171,0.0
                120.4968089,36.3058176,0.0
                120.4968086,36.305818,0.0
                120.4968083,36.3058183,0.0
                120.496808,36.3058187,0.0
                120.4968077,36.3058191,0.0
                120.4968075,36.3058195,0.0
                120.4968072,36.3058199,0.0
                120.4968068,36.3058202,0.0
                120.4968065,36.3058206,0.0
                120.496806,36.3058209,0.0
                120.4968057,36.3058212,0.0
                120.4968053,36.3058215,0.0
                120.4968048,36.3058218,0.0
                120.4968043,36.3058221,0.0
                120.496804,36.3058225,0.0
                120.4968036,36.3058229,0.0
                120.4968031,36.3058232,0.0
                120.4968026,36.3058235,0.0
                120.4968021,36.3058238,0.0
                120.4968015,36.3058242,0.0
                120.496801,36.3058245,0.0
                120.4968006,36.3058249,0.0
                120.4968002,36.3058253,0.0
                120.4967997,36.3058257,0.0
                120.4967991,36.3058261,0.0
                120.4967986,36.3058266,0.0
                120.4967982,36.305827,0.0
                120.4967977,36.3058275,0.0
                120.4967973,36.3058279,0.0
                120.4967969,36.3058284,0.0
                120.4967965,36.3058289,0.0
                120.4967961,36.3058294,0.0
                120.4967957,36.3058299,0.0
                120.4967954,36.3058304,0.0
                120.4967951,36.3058309,0.0
                120.4967949,36.3058313,0.0
                120.4967946,36.3058318,0.0
                120.4967942,36.3058324,0.0
                120.4967939,36.3058329,0.0
                120.4967937,36.3058334,0.0
                120.4967934,36.3058339,0.0
                120.4967932,36.3058344,0.0
                120.496793,36.305835,0.0
                120.4967928,36.3058355,0.0
                120.4967926,36.3058361,0.0
                120.4967924,36.3058366,0.0
                120.4967922,36.305837,0.0
                120.4967921,36.3058376,0.0
                120.4967919,36.3058381,0.0
                120.4967917,36.3058386,0.0
                120.4967916,36.3058391,0.0
                120.4967915,36.3058396,0.0
                120.4967913,36.3058401,0.0
                120.4967912,36.3058406,0.0
                120.496791,36.3058411,0.0
                120.4967909,36.3058416,0.0
                120.4967907,36.3058421,0.0
                120.4967905,36.3058426,0.0
                120.4967903,36.3058431,0.0
                120.4967902,36.3058436,0.0
                120.49679,36.3058442,0.0
                120.4967899,36.3058447,0.0
                120.4967898,36.3058452,0.0
                120.4967896,36.3058457,0.0
                120.4967895,36.3058462,0.0
                120.4967893,36.3058467,0.0
                120.4967892,36.3058472,0.0
                120.4967891,36.3058477,0.0
                120.4967889,36.3058482,0.0
                120.4967888,36.3058487,0.0
                120.4967887,36.3058492,0.0
                120.4967885,36.3058496,0.0
                120.4967884,36.3058502,0.0
                120.4967882,36.3058506,0.0
                120.4967881,36.3058511,0.0
                120.496788,36.3058516,0.0
                120.4967879,36.3058521,0.0
                120.4967877,36.3058525,0.0
                120.4967876,36.305853,0.0
                120.4967875,36.3058535,0.0
                120.4967874,36.3058541,0.0
                120.4967872,36.3058545,0.0
                120.4967871,36.305855,0.0
                120.496787,36.3058555,0.0
                120.496787,36.305856,0.0
                120.4967869,36.3058565,0.0
                120.4967868,36.305857,0.0
                120.4967866,36.3058575,0.0
                120.4967865,36.305858,0.0
                120.4967864,36.3058584,0.0
                120.4967863,36.3058589,0.0
                120.4967862,36.3058594,0.0
                120.4967861,36.3058599,0.0
                120.496786,36.3058604,0.0
                120.4967858,36.3058609,0.0
                120.4967857,36.3058614,0.0
                120.4967857,36.3058619,0.0
                120.4967855,36.3058624,0.0
                120.4967854,36.3058629,0.0
                120.4967853,36.3058634,0.0
                120.4967852,36.3058639,0.0
                120.4967851,36.3058644,0.0
                120.496785,36.3058649,0.0
                120.4967848,36.3058653,0.0
                120.4967846,36.3058658,0.0
                120.4967845,36.3058663,0.0
                120.4967844,36.3058668,0.0
                120.4967842,36.3058673,0.0
                120.4967841,36.3058678,0.0
                120.496784,36.3058683,0.0
                120.4967839,36.3058688,0.0
                120.4967837,36.3058693,0.0
                120.4967837,36.3058698,0.0
                120.4967835,36.3058703,0.0
                120.4967834,36.3058709,0.0
                120.4967832,36.3058714,0.0
                120.4967831,36.3058719,0.0
                120.4967831,36.3058725,0.0
                120.4967831,36.3058731,0.0
                120.496783,36.3058737,0.0
                120.496783,36.3058742,0.0
                120.496783,36.3058748,0.0
                120.496783,36.3058754,0.0
                120.496783,36.3058759,0.0
                120.496783,36.3058765,0.0
                120.496783,36.305877,0.0
                120.496783,36.3058776,0.0
                120.4967831,36.3058781,0.0
                120.4967831,36.3058787,0.0
                120.4967832,36.3058793,0.0
                120.4967832,36.3058798,0.0
                120.4967833,36.3058803,0.0
                120.4967834,36.3058809,0.0
                120.4967835,36.3058814,0.0
                120.4967837,36.305882,0.0
                120.4967838,36.3058825,0.0
                120.496784,36.305883,0.0
                120.4967842,36.3058835,0.0
                120.4967843,36.305884,0.0
                120.4967846,36.3058845,0.0
                120.4967848,36.3058851,0.0
                120.496785,36.3058855,0.0
                120.4967851,36.3058861,0.0
                120.4967853,36.3058866,0.0
                120.4967856,36.3058871,0.0
                120.4967858,36.3058876,0.0
                120.496786,36.3058881,0.0
                120.4967863,36.3058886,0.0
                120.4967865,36.305889,0.0
                120.4967868,36.3058895,0.0
                120.496787,36.30589,0.0
                120.4967872,36.3058904,0.0
                120.4967874,36.3058909,0.0
                120.4967877,36.3058914,0.0
                120.496788,36.3058918,0.0
                120.4967883,36.3058922,0.0
                120.4967885,36.3058927,0.0
                120.4967888,36.3058931,0.0
                120.4967891,36.3058935,0.0
                120.4967895,36.3058939,0.0
                120.4967898,36.3058944,0.0
                120.4967904,36.3058948,0.0
                120.4967908,36.3058953,0.0
                120.4967911,36.3058956,0.0
                120.4967918,36.3058961,0.0
                120.4967922,36.3058965,0.0
                120.4967927,36.3058969,0.0
                120.4967931,36.3058972,0.0
                120.4967936,36.3058976,0.0
                120.496794,36.305898,0.0
                120.4967946,36.3058984,0.0
                120.4967952,36.3058987,0.0
                120.4967958,36.305899,0.0
                120.4967963,36.3058993,0.0
                120.4967969,36.3058995,0.0
                120.4967975,36.3058998,0.0
                120.4967981,36.3059,0.0
                120.4967987,36.3059002,0.0
                120.4967995,36.3059005,0.0
                120.4968,36.3059006,0.0
                120.4968005,36.3059008,0.0
                120.4968013,36.3059009,0.0
                120.4968018,36.305901,0.0
                120.4968024,36.305901,0.0
                120.496803,36.3059011,0.0
                120.4968036,36.3059011,0.0
                120.4968042,36.3059011,0.0
                120.4968047,36.3059011,0.0
                120.4968054,36.3059011,0.0
                120.4968059,36.3059011,0.0
                120.4968066,36.3059011,0.0
                120.4968071,36.305901,0.0
                120.4968076,36.3059009,0.0
                120.4968082,36.3059008,0.0
                120.4968087,36.3059008,0.0
                120.4968092,36.3059006,0.0
                120.4968095,36.3059004,0.0
                120.4968101,36.3059003,0.0
                120.4968106,36.3059001,0.0
                120.4968111,36.3059,0.0
                120.4968115,36.3058998,0.0
                120.4968119,36.3058996,0.0
                120.4968125,36.3058994,0.0
                120.4968131,36.3058994,0.0
                120.4968136,36.3058993,0.0
                120.4968141,36.305899,0.0
                120.4968146,36.3058989,0.0
                120.4968151,36.3058988,0.0
                120.4968156,36.3058986,0.0
                120.4968161,36.3058985,0.0
                120.4968165,36.3058983,0.0
                120.4968171,36.3058982,0.0
                120.4968176,36.305898,0.0
                120.496818,36.3058978,0.0
                120.4968186,36.3058976,0.0
                120.4968192,36.3058975,0.0
                120.4968196,36.3058973,0.0
                120.4968202,36.3058971,0.0
                120.4968207,36.305897,0.0
                120.4968212,36.3058968,0.0
                120.4968217,36.3058966,0.0
                120.4968222,36.3058964,0.0
                120.4968227,36.3058963,0.0
                120.4968233,36.3058962,0.0
                120.4968238,36.3058961,0.0
                120.4968243,36.3058959,0.0
                120.4968248,36.3058956,0.0
                120.4968253,36.3058955,0.0
                120.496826,36.3058955,0.0
                120.4968265,36.3058954,0.0
                120.496827,36.3058952,0.0
                120.4968275,36.3058949,0.0
                120.496828,36.3058947,0.0
                120.4968286,36.3058945,0.0
                120.4968291,36.3058943,0.0
                120.4968297,36.3058941,0.0
                120.4968302,36.3058938,0.0
                120.4968306,36.3058936,0.0
                120.4968312,36.3058934,0.0
                120.4968316,36.3058931,0.0
                120.4968321,36.3058929,0.0
                120.4968326,36.3058926,0.0
                120.4968332,36.3058924,0.0
                120.4968337,36.3058921,0.0
                120.4968342,36.3058918,0.0
                120.4968347,36.3058915,0.0
                120.4968352,36.3058912,0.0
                120.4968356,36.305891,0.0
                120.4968361,36.3058908,0.0
                120.4968366,36.3058905,0.0
                120.4968371,36.3058902,0.0
                120.4968376,36.3058899,0.0
                120.4968381,36.3058896,0.0
                120.4968386,36.3058893,0.0
                120.496839,36.305889,0.0
                120.4968395,36.3058887,0.0
                120.4968399,36.3058884,0.0
                120.4968404,36.3058882,0.0
                120.4968407,36.3058879,0.0
                120.4968411,36.3058875,0.0
                120.4968417,36.3058873,0.0
                120.4968421,36.305887,0.0
                120.4968426,36.3058867,0.0
                120.4968431,36.3058864,0.0
                120.4968436,36.3058861,0.0
                120.496844,36.3058858,0.0
                120.4968445,36.3058855,0.0
                120.4968449,36.3058852,0.0
                120.4968455,36.3058849,0.0
                120.4968459,36.3058845,0.0
                120.4968463,36.3058841,0.0
                120.4968468,36.3058838,0.0
                120.4968473,36.3058835,0.0
                120.4968476,36.3058831,0.0
                120.496848,36.3058827,0.0
                120.4968485,36.3058823,0.0
                120.4968488,36.3058818,0.0
                120.4968493,36.3058815,0.0
                120.4968497,36.3058811,0.0
                120.49685,36.3058806,0.0
                120.4968503,36.3058801,0.0
                120.4968506,36.3058797,0.0
                120.496851,36.3058793,0.0
                120.4968514,36.3058788,0.0
                120.4968517,36.3058784,0.0
                120.4968521,36.3058779,0.0
                120.4968525,36.3058775,0.0
                120.4968528,36.3058771,0.0
                120.496853,36.3058765,0.0
                120.4968533,36.3058761,0.0
                120.4968537,36.3058756,0.0
                120.496854,36.3058752,0.0
                120.4968542,36.3058747,0.0
                120.4968545,36.3058741,0.0
                120.4968548,36.3058736,0.0
                120.496855,36.3058731,0.0
                120.4968553,36.3058726,0.0
                120.4968556,36.3058721,0.0
                120.4968558,36.3058716,0.0
                120.496856,36.3058711,0.0
                120.4968564,36.3058706,0.0
                120.4968566,36.3058701,0.0
                120.4968568,36.3058695,0.0
                120.496857,36.305869,0.0
                120.4968573,36.3058685,0.0
                120.4968576,36.3058679,0.0
                120.4968579,36.3058674,0.0
                120.496858,36.3058668,0.0
                120.4968583,36.3058663,0.0
                120.4968585,36.3058657,0.0
                120.4968588,36.3058652,0.0
                120.496859,36.3058646,0.0
                120.4968594,36.3058642,0.0
                120.4968596,36.305864,0.0
                120.4968594,36.3058639,0.0
                120.4968593,36.3058639,0.0
                120.4968592,36.3058639,0.0
                120.4968593,36.305864,0.0
                120.4968593,36.305864,0.0
                120.4968593,36.305864,0.0
                120.4968593,36.305864,0.0
                120.4968593,36.305864,0.0
                120.4968593,36.3058639,0.0
                120.4968594,36.3058639,0.0
                120.4968593,36.3058638,0.0
                120.4968593,36.3058638,0.0
                120.4968593,36.3058638,0.0
                120.4968593,36.3058638,0.0
                120.4968593,36.3058638,0.0
                120.4968593,36.3058638,0.0
                120.4968593,36.3058638,0.0
                120.4968593,36.3058638,0.0
                120.4968593,36.3058638,0.0
                120.4968593,36.3058638,0.0
                120.4968593,36.3058637,0.0
                120.4968593,36.3058638,0.0
                120.4968593,36.3058637,0.0
                120.4968593,36.3058638,0.0
                120.4968593,36.3058637,0.0
                120.4968593,36.3058637,0.0
                120.4968594,36.3058638,0.0
                120.4968594,36.3058637,0.0
                120.4968593,36.3058637,0.0
                120.4968594,36.3058637,0.0
                120.4968594,36.3058637,0.0
                120.4968594,36.3058637,0.0
                120.4968593,36.3058637,0.0
                120.4968593,36.3058637,0.0
                120.4968594,36.3058637,0.0
                120.4968594,36.3058637,0.0
                120.4968593,36.3058637,0.0
                120.4968593,36.3058637,0.0
                120.4968594,36.3058637,0.0
                120.4968594,36.3058637,0.0
                120.4968594,36.3058637,0.0
                120.4968594,36.3058637,0.0
                120.4968594,36.3058637,0.0
                120.4968594,36.3058637,0.0
                120.4968594,36.3058637,0.0
                120.4968594,36.3058637,0.0
                120.4968594,36.3058637,0.0
                120.4968594,36.3058637,0.0
                120.4968594,36.3058636,0.0
                120.4968594,36.3058636,0.0
                120.4968594,36.3058636,0.0
                120.4968594,36.3058636,0.0
                120.4968594,36.3058636,0.0
                120.4968594,36.3058636,0.0
                120.4968594,36.3058636,0.0
                120.4968594,36.3058636,0.0
                120.4968594,36.3058636,0.0
                120.4968594,36.3058636,0.0
                120.4968594,36.3058636,0.0
                120.4968594,36.3058635,0.0
                120.4968594,36.3058635,0.0
                120.4968594,36.3058635,0.0
                120.4968594,36.3058635,0.0
                120.4968594,36.3058635,0.0
                120.4968595,36.3058635,0.0
                120.4968594,36.3058635,0.0
                120.4968594,36.3058635,0.0
                120.4968594,36.3058635,0.0
                120.4968594,36.3058635,0.0
                120.4968594,36.3058635,0.0
                120.4968594,36.3058635,0.0
                120.4968594,36.3058635,0.0
                120.4968594,36.3058635,0.0
                120.4968595,36.3058635,0.0
                120.4968594,36.3058635,0.0
                120.4968594,36.3058635,0.0
                120.4968594,36.3058635,0.0
                120.4968594,36.3058635,0.0
                120.4968594,36.3058635,0.0
                120.4968594,36.3058635,0.0
                120.4968594,36.3058635,0.0
                120.4968594,36.3058635,0.0
                120.4968594,36.3058635,0.0
        </coordinates>
      </LineString>
    </Placemark>
  </Document>
</kml>
